BEIDOU-2 IGSO-1         
1 36828U 10036A   26062.70852657 -.00000147  00000+0  00000+0 0  9994
2 36828  54.2923 163.9165 0054007 218.9612 138.7891  1.00252560 57033
BEIDOU-2 G4             
1 37210U 10057A   26062.83214314 -.00000124  00000+0  00000+0 0  9994
2 37210   3.3853  69.5515 0009110 210.5188 341.0949  1.00272104 56237
BEIDOU-2 IGSO-2         
1 37256U 10068A   26062.54925478 -.00000175  00000+0  00000+0 0  9990
2 37256  47.7339 273.1369 0047361 212.9625 340.0691  1.00258892 55735
BEIDOU-2 IGSO-3         
1 37384U 11013A   26058.90884667 -.00000154  00000+0  00000+0 0  9999
2 37384  62.2642  41.1818 0035029 190.8154 358.7681  1.00294022 54567
BEIDOU-2 IGSO-4         
1 37763U 11038A   26062.71737726 -.00000114  00000+0  00000+0 0  9990
2 37763  54.5893 166.6259 0154374 230.9657 116.5987  1.00265642 53587
BEIDOU-2 IGSO-5         
1 37948U 11073A   26062.55653834 -.00000150  00000+0  00000+0 0  9993
2 37948  47.8694 272.8493 0108574 221.0989 322.8910  1.00272725 52077
BEIDOU-2 G5             
1 38091U 12008A   26062.76667547  .00000044  00000+0  00000+0 0  9992
2 38091   3.3108  70.3148 0014120 250.1552 175.8358  1.00276118 51312
BEIDOU-2 M3             
1 38250U 12018A   26062.40807551 -.00000060  00000+0  00000+0 0  9991
2 38250  55.8472 308.4420 0021171 279.5872  80.2341  1.86229789 93972
BEIDOU-2 M4             
1 38251U 12018B   26061.80325391 -.00000055  00000+0  00000+0 0  9996
2 38251  55.7490 307.6853 0012856 286.3325  73.5869  1.86229510 93963
BEIDOU-2 M6             
1 38775U 12050B   26060.97652929 -.00000006  00000+0  00000+0 0  9996
2 38775  56.4507  66.4378 0013903 341.6100  18.3756  1.86230866 91318
BEIDOU-2 G6             
1 38953U 12059A   26062.67443453 -.00000186  00000+0  00000+0 0  9991
2 38953   4.1541  74.6539 0010448 302.4191 111.1357  1.00269255 48850
BEIDOU-3S IGSO-1S       
1 40549U 15019A   26062.60351340 -.00000161  00000+0  00000+0 0  9993
2 40549  49.3919 296.7335 0035838 190.4162 347.9683  1.00273864 40010
BEIDOU-3S M2S           
1 40748U 15037A   26062.54429301 -.00000057  00000+0  00000+0 0  9994
2 40748  54.9636 305.6850 0008876 278.3355  81.6239  1.86231824 72156
BEIDOU-3S M1S           
1 40749U 15037B   26061.69084880 -.00000053  00000+0  00000+0 0  9995
2 40749  54.9610 305.7025 0004647  29.9008 330.1863  1.86253746 72142
BEIDOU-2 IGSO-6         
1 41434U 16021A   26062.61776422 -.00000148  00000+0  00000+0 0  9999
2 41434  60.0855  39.0857 0059813 233.4422 206.9626  1.00278549 36422
BEIDOU-2 G7             
1 41586U 16037A   26062.87753244 -.00000365  00000+0  00000+0 0  9990
2 41586   1.4603  68.1921 0007519 341.7699 178.0913  1.00267644  5833
BEIDOU-3 M1             
1 43001U 17069A   26062.35283419 -.00000016  00000+0  00000+0 0  9998
2 43001  56.6002  66.5689 0012408 309.5374  50.3827  1.86230953 56637
